nces_id,ai_code,name,city,state,zip,num_teachers,num_students
10001200874,10465,BOAZ HIGH SCH,BOAZ,AL,35957,1,10
10012001472,10175,ATHENS HIGH SCH,ATHENS,AL,35611,1,36
10019001183,12485,THOMPSON HIGH SCHOOL,ALABASTER,AL,35007,1,15
10024000048,12220,PRATTVILLE HIGH SCH,PRATTVILLE,AL,36067,1,49
10027000641,11334,GULF SHORES HIGH SCH,GULF SHORES,AL,36542,1,23
10027001784,11140,FOLEY HIGH SCH,FOLEY,AL,36535,1,18
10039000176,10355,RAMSAY HIGH SCH,BIRMINGHAM,AL,35205,1,30
10081000327,11512,ZION CHAPEL HIGH SCH,JACK,AL,36346,1,8
10129000468,11758,STANHOPE ELMORE HIGH SCH,MILLBROOK,AL,36054,1,13
10129000471,12835,WETUMPKA HIGH SCH,WETUMPKA,AL,36092,1,9
10132000476,10980,ENTERPRISE HIGH SCH,ENTERPRISE,AL,36330,1,14
10144000516,11055,FAIRFIELD HIGH PREPARATORY SCH,FAIRFIELD,AL,35064,1,18
10153000528,11126,FLORENCE HIGH SCH,FLORENCE,AL,35630,1,44
10192000917,,JEFFERSON CO IBS,IRONDALE,AL,35210,1,21
10201000764,11568,BROOKS HIGH SCH,KILLEN,AL,35645,1,8
10207000791,10445,BEULAH HIGH SCH,VALLEY,AL,36854,1,16
10237001688,12615,THEODORE HIGH SCH,THEODORE,AL,36582,1,11
10243001457,11877,BREWBAKER TECH MAGNET HIGH SCH,MONTGOMERY,AL,36116,1,44
10243002203,,MONTGOMERY TECHNICAL EDUCATION CENTER,MONTGOMERY,AL,36108,1,6
10291001142,12352,RUSSELLVILLE HIGH SCH,RUSSELLVILLE,AL,35653,1,6
10300001164,12455,SHEFFIELD HIGH SCH,SHEFFIELD,AL,35660,1,18
10303001189,10408,OAK MT HIGH SCH,BIRMINGHAM,AL,35242,1,81
10309002201,12855,SUMTER CENTRAL HIGH SCH,YORK,AL,36925,1,15
10318001213,20228,CHILDERSBURG HIGH SCH,CHILDERSBURG,AL,35044,1,14
10318001220,20049,MUNFORD HIGH SCH,MUNFORD,AL,36268,1,14
10339000052,20243,HILLCREST HIGH SCH,TUSCALOOSA,AL,35405,1,44
40146000081,30417,BUENA HIGH SCHOOL,SIERRA VISTA,AZ,85635,1,7
40593000488,30316,NORTH CANYON HIGH SCHOOL,PHOENIX,AZ,85024,1,16
40593001553,30287,PARADISE VALLEY HIGH SCHOOL,PHOENIX,AZ,85032,1,21
60002807222,53539,CHAPARRAL HIGH,TEMECULA,CA,92591,1,55
60002808564,53643,TEMECULA PREPARATORY,WINCHESTER,CA,92596,1,9
60002809499,53499,TEMECULA VALLEY HIGH,TEMECULA,CA,92592,1,26
60002811038,53880,GREAT OAK HIGH,TEMECULA,CA,92592,1,34
60162000010,54791,CERRITOS HIGH,CERRITOS,CA,90703,1,74
60263000169,52017,ANAHEIM HIGH,ANAHEIM,CA,92805,1,20
60263000172,53792,CYPRESS HIGH,CYPRESS,CA,90630,1,39
60263000180,51162,LOARA HIGH,ANAHEIM,CA,92804,1,24
60263007580,59578,OXFORD ACADEMY,CYPRESS,CA,90630,1,26
60962000975,52763,CENTENNIAL HIGH,COMPTON,CA,90222,1,19
60985004959,51932,SANTIAGO HIGH,CORONA,CA,92881,1,21
61005001105,52562,SOUTH HILLS HIGH,WEST COVINA,CA,91723,1,28
61182001309,50502,SILVER CREEK HIGH,SAN JOSE,CA,95121,1,33
61182010665,51391,EVERGREEN VALLEY HIGH,SAN JOSE,CA,95148,1,26
61389011932,59271,VISTA DEL LAGO HIGH,FOLSOM,CA,95630,1,98
61392010301,51390,FONTANA A. B. MILLER HIGH,FONTANA,CA,92336,1,11
61623013915,,,,,,1,20
62100002518,50003,AGOURA HIGH,AGOURA,CA,91301,1,90
62271002844,50245,BELL SENIOR HIGH,BELL,CA,90201,1,37
62271002923,52618,GROVER CLEVELAND CHARTER HIGH,RESEDA,CA,91335,1,38
62271002941,51569,"CRENSHAW SCI, TECH, ENGR, MATH AND MED MAGNET",LOS ANGELES,CA,90043,1,16
62271003017,51788,FOSHAY LEARNING CENTER,LOS ANGELES,CA,90018,1,133
62271003029,54030,ROBERT FULTON COLLEGE PREPARATORY,VAN NUYS,CA,91405,1,20
62271003050,51088,GRANADA HILLS CHARTER HIGH,GRANADA HILLS,CA,91344,1,31
62271003064,51525,ALEXANDER HAMILTON SENIOR HIGH,LOS ANGELES,CA,90034,1,59
62271003088,51615,HOLLYWOOD SENIOR HIGH,LOS ANGELES,CA,90028,1,29
62271003171,51650,JOHN MARSHALL SENIOR HIGH,LOS ANGELES,CA,90027,1,31
62271003230,52145,NORTH HOLLYWOOD SENIOR HIGH,NORTH HOLLYWOOD,CA,91601,2,59
62271003325,52905,SAN FERNANDO SENIOR HIGH,SAN FERNANDO,CA,91340,2,105
62271003330,53195,SAN PEDRO SENIOR HIGH,SAN PEDRO,CA,90731,1,38
62271003455,54879,WESM HEALTH/SPORTS MEDICINE,LOS ANGELES,CA,90045,1,22
62271009150,51672,KING/DREW MEDICAL MAGNET HIGH,LOS ANGELES,CA,90059,1,10
62271010844,53747,HARBOR TEACHER PREPARATION ACADEMY,WILMINGTON,CA,90744,1,24
62271010867,54088,ALLIANCE JUDY IVIE BURTON TECHNOLOGY ACADEMY HIGH,LOS ANGELES,CA,90003,1,44
62271010888,53980,SOUTH EAST HIGH,SOUTH GATE,CA,90280,1,26
62271010889,53998,MAYWOOD ACADEMY HIGH,MAYWOOD,CA,90270,1,87
62271011653,54081,PANORAMA HIGH,PANORAMA CITY,CA,91402,1,6
62271012234,54249,HELEN BERNSTEIN HIGH,HOLLYWOOD,CA,90028,1,22
62271012295,51862,EDWARD R. ROYBAL LEARNING CENTER,LOS ANGELES,CA,90026,1,73
62271012312,54291,APEX ACADEMY,LOS ANGELES,CA,90028,1,10
62271012438,54381,FELICITAS AND GONZALO MENDEZ HIGH,LOS ANGELES,CA,90033,1,7
62271012524,51662,RFK COMMUNITY SCHOOLS-UCLA COMMUNITY K-12,LOS ANGELES,CA,90005,1,54
62271012572,54527,ALLIANCE TENNENBAUM FAMILY TECHNOLOGY HIGH,LOS ANGELES,CA,90065,1,36
62271012720,54444,SOC JUST LEADERSHIP ACAD AT ESTEBAN E. TORRES HIGH,LOS ANGELES,CA,90063,1,12
62271012964,54601,CESAR E. CHAVEZ LRNG ACADS-TEACHER PREPARATION ACA,SAN FERNANDO,CA,91340,1,115
62271012973,54544,COMMUNICATION AND TECH AT DIEGO RIVERA LRNG COMPLE,LOS ANGELES,CA,90001,1,16
62271013040,54617,ACADEMIES OF EDUCATION AND EMPOWERMENT AT CARSON H,CARSON,CA,90745,1,23
62271013139,54624,STEM ACADEMY AT BERNSTEIN HIGH,HOLLYWOOD,CA,90028,1,40
62271013173,54667,LINDA ESPERANZA MARQUEZ HIGH A HNTNGTN PARK INST O,HUNTINGTON PARK,CA,90255,1,24
62353003568,51892,MAMMOTH HIGH,MAMMOTH LAKES,CA,93546,1,7
62361003577,51899,EAST UNION HIGH,MANTECA,CA,95336,1,22
62403003612,51915,ALHAMBRA SENIOR HIGH,MARTINEZ,CA,94553,1,44
62772004196,52172,SAN MARIN HIGH,NOVATO,CA,94945,1,44
62805004278,54768,MADISON PARK ACADEMY 6-12,OAKLAND,CA,94603,1,20
62805004304,52225,OAKLAND HIGH,OAKLAND,CA,94610,1,28
62805004305,52240,OAKLAND TECHNICAL HIGH,OAKLAND,CA,94611,1,93
62805004315,52238,SKYLINE HIGH,OAKLAND,CA,94619,1,89
62805011920,54412,COLISEUM COLLEGE PREP ACADEMY,OAKLAND,CA,94621,1,9
62865004421,52267,CANYON HIGH,ANAHEIM,CA,92807,1,28
62865004425,52276,EL MODENA HIGH,ORANGE,CA,92869,1,22
62865004456,52279,VILLA PARK HIGH,VILLA PARK,CA,92861,1,75
63021004712,52440,PERRIS HIGH,PERRIS,CA,92571,1,14
63021004992,51907,PALOMA VALLEY HIGH,MENIFEE,CA,92584,1,14
63021011184,54173,CALIFORNIA MILITARY INSTITUTE,PERRIS,CA,92570,1,17
63021011848,54141,HERITAGE HIGH,ROMOLAND,CA,92585,1,18
63315005131,52658,ARLINGTON HIGH,RIVERSIDE,CA,92503,1,32
63386005303,51369,LAGUNA HILLS HIGH,LAGUNA HILLS,CA,92653,1,47
63498013774,,DESIGN TECH HIGH,MILLBRAE,CA,94030,1,19
63543006055,53276,ADRIAN WILCOX HIGH,SANTA CLARA,CA,95051,1,66
63543007868,53280,SANTA CLARA HIGH,SANTA CLARA,CA,95051,1,8
64248006955,53765,WHITTIER HIGH,WHITTIER,CA,90601,1,29
64251003264,53608,VALENCIA HIGH,VALENCIA,CA,91355,1,163
80336006527,60372,HIGH TECH EARLY COLLEGE,DENVER,CO,80239,1,10
80336006551,,WEST GENERATIONS ACADEMY,DENVER,CO,80204,1,14
80573000981,60315,MOFFAT COUNTY HIGH SCHOOL,CRAIG,CO,81625,1,22
90171000300,70240,GREENWICH HIGH SCHOOL,GREENWICH,CT,6830,1,20
90468000943,70645,ROCKVILLE HIGH SCHOOL,ROCKVILLE,CT,6066,1,7
120018000153,100690,SOUTH BROWARD HIGH SCHOOL,HOLLYWOOD,FL,33020,2,74
120018000157,100498,STRANAHAN HIGH SCHOOL,FORT LAUDERDALE,FL,33312,1,10
120018000169,100480,DILLARD  6-12,FORT LAUDERDALE,FL,33311,1,15
120018000171,100636,HALLANDALE HIGH SCHOOL,HALLANDALE BEACH,FL,33009,1,12
120018000217,100490,FORT LAUDERDALE HIGH SCHOOL,FORT LAUDERDALE,FL,33305,1,35
120018000225,100299,CORAL SPRINGS HIGH SCHOOL,CORAL SPRINGS,FL,33065,1,31
120018000234,100496,NOVA HIGH SCHOOL,DAVIE,FL,33314,1,33
120018000241,100497,PLANTATION HIGH SCHOOL,PLANTATION,FL,33313,1,17
120018000247,100478,HOLLYWOOD HILLS HIGH SCHOOL,HOLLYWOOD,FL,33021,1,24
120018000251,100380,DEERFIELD BEACH HIGH SCHOOL,DEERFIELD BEACH,FL,33441,1,19
120018000265,100286,COOPER CITY HIGH SCHOOL,COOPER CITY,FL,33328,1,88
120018000270,100324,ATLANTIC TECHNICAL COLLEGE,MARGATE,FL,33063,2,53
120018002048,102601,SHERIDAN TECHNICAL COLLEGE,HOLLYWOOD,FL,33021,1,16
120018002120,100476,WESTERN HIGH SCHOOL,DAVIE,FL,33325,1,30
120018002488,100344,WILLIAM T. MCFATTER TECHNICAL COLLEGE,DAVIE,FL,33317,1,16
120018002721,101348,MARJORY STONEMAN DOUGLAS HIGH SCHOOL,PARKLAND,FL,33076,1,23
120018003029,101424,CHARLES W FLANAGAN HIGH SCHOOL,PEMBROKE PINES,FL,33028,1,46
120018003301,101550,POMPANO BEACH HIGH SCHOOL,POMPANO BEACH,FL,33060,1,28
120018003543,101427,DAVE THOMAS EDUCATION CENTER,POMPANO BEACH,FL,33060,1,13
120018003815,101842,CYPRESS BAY HIGH SCHOOL,WESTON,FL,33332,1,167
120018007555,102181,WEST BROWARD HIGH SCHOOL,PEMBROKE PINES,FL,33029,1,52
120039000613,101101,SOUTH MIAMI SENIOR HIGH SCHOOL,MIAMI,FL,33155,1,23
120039007197,,MIAMI LAKES EDUCATIONAL CENTER AND TECHNICAL COLLE,MIAMI LAKES,FL,33014,1,76
120054005533,102007,MATANZAS HIGH SCHOOL,PALM COAST,FL,32137,1,22
120087002562,101778,BLOOMINGDALE HIGH SCHOOL,VALRICO,FL,33596,1,138
120144000865,101248,CYPRESS CREEK HIGH,ORLANDO,FL,32824,1,28
120144001363,101310,WILLIAM R BOONE HIGH,ORLANDO,FL,32806,1,64
120144001364,101290,EDGEWATER HIGH,ORLANDO,FL,32804,2,91
120144001447,101902,WINTER PARK HIGH,WINTER PARK,FL,32792,1,49
120144002779,101309,UNIVERSITY HIGH,ORLANDO,FL,32817,2,145
120144003745,101641,TIMBER CREEK HIGH,ORLANDO,FL,32828,1,189
120144005638,101979,OCOEE HIGH,OCOEE,FL,34761,1,60
120144007614,102196,EAST RIVER HIGH,ORLANDO,FL,32833,1,18
120150001477,100825,JUPITER HIGH SCHOOL,JUPITER,FL,33458,1,25
120150001548,100913,JOHN I. LEONARD HIGH SCHOOL,GREENACRES,FL,33463,1,100
120150001549,101341,PALM BEACH GARDENS HIGH SCHOOL,PALM BEACH GARDENS,FL,33410,1,75
120150002383,100136,SPANISH RIVER COMMUNITY HIGH SCHOOL,BOCA RATON,FL,33496,1,129
120150002627,101820,PALM BEACH LAKES HIGH SCHOOL,WEST PALM BEACH,FL,33407,1,22
120150003755,100119,BOYNTON BEACH COMMUNITY HIGH,BOYNTON BEACH,FL,33426,1,16
120183001948,100155,BRANFORD HIGH SCHOOL,BRANFORD,FL,32008,1,21
130072000305,110550,CALHOUN HIGH SCHOOL,CALHOUN,GA,30701,1,26
130084000324,113130,VILLA RICA HIGH SCHOOL,VILLA RICA,GA,30180,1,41
130084000330,110415,BOWDON HIGH SCHOOL,BOWDON,GA,30108,1,31
130084002097,112955,TEMPLE HIGH SCHOOL,TEMPLE,GA,30179,1,17
130084003582,112215,MT. ZION HIGH SCHOOL,CARROLLTON,GA,30117,1,32
130111000425,113306,ETOWAH HIGH SCHOOL,WOODSTOCK,GA,30189,1,12
130129001994,111998,POPE HIGH SCHOOL,MARIETTA,GA,30062,1,42
130174000644,112835,STONE MOUNTAIN HIGH SCHOOL,STONE MOUNTAIN,GA,30083,1,8
130177003340,111160,DODGE COUNTY HIGH SCHOOL,EASTMAN,GA,31023,1,5
130186001976,111104,ALEXANDER HIGH SCHOOL,DOUGLASVILLE,GA,30135,1,5
130186002317,111107,CHAPEL HILL HIGH SCHOOL,DOUGLASVILLE,GA,30135,1,32
130201000894,111210,ELBERT COUNTY HIGH SCHOOL,ELBERTON,GA,30635,1,15
130213002167,113052,SANDY CREEK HIGH SCHOOL,TYRONE,GA,30290,1,28
130222000956,110920,FORSYTH CENTRAL HIGH SCHOOL,CUMMING,GA,30040,1,55
130255001129,111805,CENTRAL GWINNETT HIGH SCHOOL,LAWRENCEVILLE,GA,30045,1,46
130255001980,112279,MEADOWCREEK HIGH SCHOOL,NORCROSS,GA,30093,1,19
130255003553,111140,GWINNETT SCHOOL OF MATHEMATICS- SCIENCE AND TECHNO,LAWRENCEVILLE,GA,30044,1,55
130282002130,112038,EAGLE'S LANDING HIGH SCHOOL,MCDONOUGH,GA,30253,1,24
130282002391,112043,UNION GROVE HIGH,MCDONOUGH,GA,30252,1,46
130282003414,112048,OLA HIGH SCHOOL,MCDONOUGH,GA,30252,1,29
130378001378,111965,MORGAN COUNTY HIGH SCHOOL,MADISON,GA,30650,1,38
130411002276,111695,PICKENS COUNTY HIGH SCHOOL,JASPER,GA,30143,1,57
130441001583,110860,ROCKDALE COUNTY HIGH SCHOOL,CONYERS,GA,30012,1,16
130531001732,113095,VALDOSTA HIGH SCHOOL,VALDOSTA,GA,31602,1,15
160013800944,130550,SALMON RIVER JR-SR HIGH SCHOOL,RIGGINS,ID,83549,1,6
160036000044,130042,BOISE SENIOR HIGH SCHOOL,BOISE,ID,83702,1,88
160036000047,130046,CAPITAL SENIOR HIGH SCHOOL,BOISE,ID,83704,1,78
160051000104,130073,CALDWELL SENIOR HIGH SCHOOL,CALDWELL,ID,83605,1,48
160111000203,130020,NORTH FREMONT JR-SR HIGH SCHOOL,ASHTON,ID,83420,1,6
160114000212,130215,FRUITLAND HIGH SCHOOL,FRUITLAND,ID,83619,1,8
160210000674,130389,CENTENNIAL HIGH SCHOOL,BOISE,ID,83713,1,76
160267000488,130505,POST FALLS HIGH SCHOOL,POST FALLS,ID,83877,1,15
160291000510,130600,SHELLEY SENIOR HIGH SCHOOL,SHELLEY,ID,83274,1,13
170387000075,140070,ANTIOCH COMM HIGH SCHOOL,ANTIOCH,IL,60002,1,26
170387005622,142524,LAKES COMMUNITY HIGH SCHOOL,LAKE VILLA,IL,60046,1,63
170417000117,144387,WHEELING HIGH SCHOOL,WHEELING,IL,60090,1,5
170855000486,140027,HARRY D JACOBS HIGH SCHOOL,ALGONQUIN,IL,60102,1,28
170993000889,140877,HUBBARD HIGH SCHOOL,CHICAGO,IL,60629,1,28
170993000942,140640,LANE TECHNICAL HIGH SCHOOL,CHICAGO,IL,60618,1,80
170993000977,141307,MATHER HIGH SCHOOL,CHICAGO,IL,60659,1,17
170993001180,141345,VON STEUBEN METRO SCIENCE HS,CHICAGO,IL,60625,1,18
170993001198,141016,CURIE METROPOLITAN HIGH SCHOOL,CHICAGO,IL,60632,1,25
170993001980,140899,HANCOCK COLLEGE PREPARATORY HS,CHICAGO,IL,60629,1,29
170993003542,140869,UNIV OF CHICAGO CHARTER SCHOOLS,CHICAGO,IL,60637,1,36
170993005795,141141,INFINITY MATH  SCIENCE & TECH HS,CHICAGO,IL,60623,1,25
170993006138,141042,SOLORIO ACADEMY HIGH SCHOOL,CHICAGO,IL,60632,1,32
171137001367,141515,CRYSTAL LAKE CENTRAL HIGH SCHOOL,CRYSTAL LAKE,IL,60014,1,13
171137001368,141517,CRYSTAL LAKE SOUTH HIGH SCHOOL,CRYSTAL LAKE,IL,60014,1,29
171137002154,141519,PRAIRIE RIDGE HIGH SCHOOL,CRYSTAL LAKE,IL,60012,1,40
171397001755,141805,YORK COMM HIGH SCHOOL,ELMHURST,IL,60126,1,26
171683001989,140534,GLENBARD NORTH HIGH SCHOOL,CAROL STREAM,IL,60188,1,22
171908002193,141570,DEERFIELD HIGH SCHOOL,DEERFIELD,IL,60015,1,24
171908002194,142275,HIGHLAND PARK HIGH SCHOOL,HIGHLAND PARK,IL,60035,2,66
171932002222,142300,HINSDALE CENTRAL HIGH SCHOOL,HINSDALE,IL,60521,1,8
172190002460,142530,LAKE ZURICH HIGH SCHOOL,LAKE ZURICH,IL,60047,1,34
172283002531,142620,LIBERTYVILLE HIGH SCHOOL,LIBERTYVILLE,IL,60048,1,22
172853002986,143927,NILES NORTH HIGH SCHOOL,SKOKIE,IL,60077,1,78
172853002988,143926,NILES WEST HIGH SCHOOL,SKOKIE,IL,60077,1,5
172928003070,143245,OAK PARK & RIVER FOREST HIGH SCH,OAK PARK,IL,60302,1,39
173372003469,141097,RIDGEWOOD COMM HIGH SCHOOL,NORRIDGE,IL,60706,1,20
173891005071,,WOLCOTT SCHOOL,THORNTON,IL,60476,1,5
174080004097,142175,WARREN TOWNSHIP HIGH SCHOOL,GURNEE,IL,60031,1,56
174125004141,144322,WAUKEGAN HIGH SCHOOL,WAUKEGAN,IL,60085,2,53
174389004357,144515,ZION-BENTON TWNSHP HI SCH,ZION,IL,60099,1,20
180001801789,151773,CHRISTEL HOUSE ACADEMY SOUTH,INDIANAPOLIS,IN,46225,1,8
180120000193,150445,CARMEL HIGH SCHOOL,CARMEL,IN,46032,1,113
180417000722,151405,GRIFFITH SENIOR HIGH SCHOOL,GRIFFITH,IN,46319,1,12
181008001618,153175,SEYMOUR SENIOR HIGH SCHOOL,SEYMOUR,IN,47274,1,21
181065001752,151045,HAMILTON SOUTHEASTERN HS,FISHERS,IN,46037,1,44
181065002392,151041,FISHERS HIGH SCHOOL,FISHERS,IN,46038,1,10
181126001819,153405,TELL CITY JR-SR HIGH SCHOOL,TELL CITY,IN,47586,1,8
181308002075,153735,WESTFIELD HIGH SCHOOL,WESTFIELD,IN,46074,1,41
193099001805,164635,WEST LIBERTY HIGH SCHOOL,WEST LIBERTY,IA,52776,1,8
220030000151,192678,CAPTAIN SHREVE HIGH SCHOOL,SHREVEPORT,LA,71105,1,6
231185000731,201045,VINALHAVEN SCHOOL,VINALHAVEN,ME,4863,1,24
240015001342,210651,HUNTINGTOWN HIGH SCHOOL,HUNTINGTOWN,MD,20639,1,20
240027000144,211059,WESTLAKE HIGH SCHOOL,WALDORF,MD,20603,2,25
240027000596,210685,LA PLATA HIGH SCHOOL,LA PLATA,MD,20646,1,13
240027000600,210823,MAURICE J. MCDONOUGH HIGH SCHOOL,POMFRET,MD,20675,1,12
240027001395,,ROBERT D. STETHEM EDUCATIONAL CENTER,POMFRET,MD,20675,1,5
240027001416,211061,NORTH POINT HIGH SCHOOL,WALDORF,MD,20603,1,33
240027001727,211067,ST. CHARLES HIGH SCHOOL,WALDORF,MD,20602,1,10
240033000655,211055,WALKERSVILLE HIGH,WALKERSVILLE,MD,21793,1,14
240033001550,210550,TUSCARORA HIGH,FREDERICK,MD,21703,1,8
240036000674,210785,SOUTHERN GARRETT HIGH SCHOOL,OAKLAND,MD,21550,1,19
240042000719,210968,ATHOLTON HIGH,COLUMBIA,MD,21044,1,63
240042000722,210509,CENTENNIAL HIGH,ELLICOTT CITY,MD,21042,2,193
240042000731,210593,GLENELG HIGH,GLENELG,MD,21737,1,25
240042000743,210512,MOUNT HEBRON HIGH,ELLICOTT CITY,MD,21042,1,57
240042000816,210402,RIVER HILL HIGH,CLARKSVILLE,MD,21029,1,120
240042000822,210415,LONG REACH HIGH,COLUMBIA,MD,21045,1,29
240042001200,210557,RESERVOIR HIGH,FULTON,MD,20759,1,78
240042001437,210745,MARRIOTTS RIDGE HIGH,MARRIOTTSVILLE,MD,21104,1,79
240048000784,210250,BETHESDA-CHEVY CHASE HIGH,BETHESDA,MD,20814,1,62
240048000838,210560,GAITHERSBURG HIGH,GAITHERSBURG,MD,20877,1,27
240048000855,210960,JOHN F. KENNEDY HIGH,SILVER SPRING,MD,20902,1,11
240048000912,210914,ROCKVILLE HIGH,ROCKVILLE,MD,20851,1,29
240048000918,210582,SENECA VALLEY HIGH,GERMANTOWN,MD,20874,1,15
240048000926,210969,SPRINGBROOK HIGH,SILVER SPRING,MD,20904,1,54
240048000941,210271,WALT WHITMAN HIGH,BETHESDA,MD,20817,1,24
240048000951,211085,WHEATON HIGH,SILVER SPRING,MD,20906,2,46
240048001040,210589,NORTHWEST HIGH,GERMANTOWN,MD,20874,1,28
240048001366,210947,NORTHWOOD HIGH SCHOOL,SILVER SPRING,MD,20901,1,15
240048001509,210564,QUINCE ORCHARD HIGH,GAITHERSBURG,MD,20878,1,38
240048001525,210568,WATKINS MILL HIGH,GAITHERSBURG,MD,20879,1,10
240048001541,210381,CLARKSBURG HIGH,CLARKSBURG,MD,20871,1,69
240051002951,210980,CHARLES HERBERT FLOWERS HIGH,SPRINGDALE,MD,20774,1,75
250004600819,221947,PROSPECT HILL ACADEMY CHARTER SCHOOL,CAMBRIDGE,MA,2139,1,2
250198000053,220033,ARLINGTON HIGH,ARLINGTON,MA,2476,1,38
250210000070,220065,ASHLAND HIGH,ASHLAND,MA,1721,1,24
250309000385,220435,BROCKTON HIGH,BROCKTON,MA,2301,1,19
250648000935,221095,IPSWICH HIGH,IPSWICH,MA,1938,1,14
250798001262,221440,MILTON HIGH,MILTON,MA,2186,1,19
262814006385,233015,PINCKNEY  COMMUNITY HIGH SCHOOL,PINCKNEY,MI,48169,1,21
273239001379,242125,ROSEMOUNT SENIOR HIGH,ROSEMOUNT,MN,55068,1,37
320006000007,290090,BASIC HIGH SCHOOL,HENDERSON,NV,89015,1,23
320006000111,290025,VIRGIN VALLEY HIGH SCHOOL,MESQUITE,NV,89027,1,6
320006000277,290119,LAS VEGAS ACADEMY OF INT'L STUDIES  PERFORMING AND,LAS VEGAS,NV,89101,1,17
320006000405,290121,CHEYENNE HIGH SCHOOL,NORTH LAS VEGAS,NV,89032,1,11
320006000406,290115,CIMARRON MEMORIAL HIGH SCHOOL,LAS VEGAS,NV,89128,1,14
320006000420,290132,SILVERADO HIGH SCHOOL,LAS VEGAS,NV,89123,1,13
320006000595,290209,SHADOW RIDGE HIGH SCHOOL,LAS VEGAS,NV,89131,1,18
320006000661,290204,ARBOR VIEW HIGH SCHOOL,LAS VEGAS,NV,89131,1,22
320006000748,290227,EAST CAREER TECHNICAL ACADEMY,LAS VEGAS,NV,89142,1,23
320006000755,290225,NORTHWEST CAREER AND TECHNICAL ACADEMY,LAS VEGAS,NV,89149,1,7
320006000778,290215,VETERANS TRIBUTE CAREER TECHINCAL ACADEMY,LAS VEGAS,NV,89106,1,38
320006000780,290213,SOUTHWEST CAREER AND TECHNICAL ACADEMY,LAS VEGAS,NV,89113,1,43
340203000960,310140,BORDENTOWN REGIONAL HIGH SCHOOL,BORDENTOWN,NJ,8505,1,83
340360000324,310263,CRESSKILL HIGH SCHOOL,CRESSKILL,NJ,7626,1,14
360005904803,332891,RENAISSANCE CHARTER SCHOOL (THE),JACKSON HEIGHTS,NY,11372,1,13
360007600695,333608,EAST SIDE COMMUNITY SCHOOL,NEW YORK,NY,10009,1,11
360007705500,333783,MANHATTAN BRIDGES HIGH SCHOOL,NEW YORK,NY,10019,1,16
360008705183,330591,FORDHAM HIGH SCHOOL FOR THE ARTS,BRONX,NY,10458,1,33
360008805810,330492,ACADEMY FOR SCHOLARSHIP AND ENTREPRENEURSHIP,BRONX,NY,10466,1,19
360010002881,332585,THOMAS A EDISON CAREER AND TECHNICAL HIGH SCHOOL,JAMAICA,NY,11432,1,29
360010205511,332904,INFORMATION TECHNOLOGY HIGH SCHOOL,LONG ISLAND CITY,NY,11101,1,32
360011903078,330737,SCHOOL FOR LEGAL STUDIES,BROOKLYN,NY,11211,1,15
360011906033,330463,YOUNG WOMEN'S LEADERSHIP SCHOOL OF BROOKLYN,BROOKLYN,NY,11206,1,17
360012205879,331939,EAST-WEST SCHOOL OF INTERNATIONAL STUDIES,FLUSHING,NY,11355,1,16
360012302013,334392,JOHN ADAMS HIGH SCHOOL,OZONE PARK,NY,11417,1,25
360015101916,330743,HIGH SCHOOL OF TELECOMMUNICATIONS ARTS AND TECHNOL,BROOKLYN,NY,11220,1,33
360015201906,330550,ABRAHAM LINCOLN HIGH SCHOOL,BROOKLYN,NY,11235,1,14
360015202888,330903,WILLIAM E GRADY CAREER AND TECHNICAL EDUCATION HIG,BROOKLYN,NY,11235,1,12
360015205827,330939,HIGH SCHOOL OF SPORTS MANAGEMENT,BROOKLYN,NY,11214,1,10
360015805847,333404,DEMOCRACY PREPARATORY CHARTER SCHOOL,NEW YORK,NY,10030,1,19
360016505889,330978,HYDE LEADERSHIP CHARTER SCHOOL,BRONX,NY,10474,1,16
361335001099,332230,HAMBURG HIGH SCHOOL,HAMBURG,NY,14075,1,25
362331003265,334560,PLEASANTVILLE HIGH SCHOOL,PLEASANTVILLE,NY,10570,1,23
362505003470,334920,ROSLYN HIGH SCHOOL,ROSLYN HEIGHTS,NY,11577,1,21
362865003889,334220,SLEEPY HOLLOW HIGH SCHOOL,SLEEPY HOLLOW,NY,10591,1,17
362928003944,335668,UNIONDALE HIGH SCHOOL,UNIONDALE,NY,11553,1,9
363147004217,335984,WILLIAMSVILLE EAST HIGH SCHOOL,EAST AMHERST,NY,14051,1,24
363147004218,335983,WILLIAMSVILLE NORTH HIGH SCHOOL,WILLIAMSVILLE,NY,14221,1,19
370075000306,340258,CHATHAM CENTRAL HIGH,BEAR CREEK,NC,27207,1,17
370180000742,342985,J. F. WEBB HIGH,OXFORD,NC,27565,1,27
370180002812,340949,S GRANVILLE HS OF INTEG TECH & LEAD,CREEDMOOR,NC,27522,1,13
370180002829,343809,GRANVILLE CENTRAL HIGH,STEM,NC,27581,1,12
370268002196,,LCST,LINCOLNTON,NC,28092,1,27
370502002000,344373,JAMES HUNT HIGH,WILSON,NC,27893,1,13
390454002203,362405,MCCLAIN HIGH SCHOOL,GREENFIELD,OH,45123,1,8
390463802535,360495,BLANCHESTER HIGH SCHOOL,BLANCHESTER,OH,45107,1,5
390470005566,365841,REYNOLDSBURG HIGH SCHOOL ESTEM,REYNOLDSBURG,OH,43068,1,47
390470005655,365782,REYNOLDSBURG HS HEALTH SCIENCES & HUMAN SERVICES A,REYNOLDSBURG,OH,43068,1,8
390493703574,363965,OTTAWA-GLANDORF HIGH SCHOOL,OTTAWA,OH,45875,1,5
402754001453,373250,SHATTUCK HS,SHATTUCK,OK,73858,1,8
420014500944,393304,MASTERY CS -SHOEMAKER CAMPUS,PHILADELPHIA,PA,19131,1,13
420885003482,391130,EASTON AREA HS,EASTON,PA,18045,1,92
421874001629,390520,CAMBRIDGE SPRINGS JSHS,CAMBRIDGE SPRINGS,PA,16403,1,15
421899000572,393524,SWENSON ARTS & TECHNOLOGY HS,PHILADELPHIA,PA,19114,1,13
422097000864,392215,SCHUYLKILL VALLEY HS,LEESPORT,PA,19533,1,20
466627000610,421185,WASHINGTON HIGH SCHOOL - 01,SIOUX FALLS,SD,57110,1,20
470159000750,430900,HIXSON HIGH SCHOOL,HIXSON,TN,37343,1,8
480020912692,443665,YES PREP - NORTHSIDE,HOUSTON,TX,77026,1,42
482364002393,443450,AUSTIN H S,HOUSTON,TX,77023,1,23
482364002518,443418,LEE H S,HOUSTON,TX,77057,1,27
482364002580,443441,SCARBOROUGH H S,HOUSTON,TX,77092,1,20
482364002583,443443,SHARPSTOWN H S,HOUSTON,TX,77074,1,9
482364002592,443419,STERLING H S,HOUSTON,TX,77048,1,21
482364002609,443454,WESTBURY H S,HOUSTON,TX,77035,1,18
482364002620,443375,YATES H S,HOUSTON,TX,77004,1,14
482364007928,443511,EASTWOOD ACADEMY,HOUSTON,TX,77023,1,102
482364012211,443437,HOUSTON MATH SCIENCE AND TECHNOLOGY CENTER,HOUSTON,TX,77076,2,37
482364012246,443606,NORTH HOUSTON EARLY COLLEGE H S,HOUSTON,TX,77022,1,27
482364012618,443638,MICKEY LELAND COLLEGE PREP ACAD FOR YOUNG MEN,HOUSTON,TX,77020,1,18
482364012621,443637,YOUNG WOMEN'S COLLEGE PREP ACADEMY,HOUSTON,TX,77004,1,3
482667003003,444010,LANCASTER H S,LANCASTER,TX,75134,1,13
484415012281,447268,VICTORIA WEST H S,VICTORIA,TX,77904,1,20
490001700904,450360,ACADEMY FOR MATH ENGINEERING & SCIENCE (AMES),SALT LAKE CITY,UT,84121,1,18
490006000036,450010,BEAVER HIGH,BEAVER,UT,84713,1,13
490006700997,450452,ITINERIS EARLY COLLEGE HIGH,WEST JORDAN,UT,84088,1,42
490012401202,450124,PROVIDENCE HALL,HERRIMAN,UT,84096,1,5
490013301216,450190,VENTURE ACADEMY,MARRIOTT-SLATERVILLE CITY,UT,84404,1,17
490027000178,450043,EMERY HIGH,CASTLE DALE,UT,84513,1,20
490036000248,450380,OLYMPUS HIGH,SALT LAKE CITY,UT,84124,1,20
490045000334,450240,JUAB HIGH,NEPHI,UT,84648,1,10
490066000412,450225,NORTH SANPETE HIGH,MT PLEASANT,UT,84647,1,13
490072001281,450245,BEN LOMOND HIGH,OGDEN,UT,84404,1,11
490105000698,,BLUE PEAK HIGH,TOOELE,UT,84074,1,10
490108000585,450440,UINTAH HIGH,VERNAL,UT,84078,1,8
490114000807,450354,PINE VIEW HIGH,ST GEORGE,UT,84790,1,22
510003201932,,APPOMATTOX REGIONAL GOV. SCH.,PETERSBURG,VA,23803,1,13
510009000015,470420,ALBEMARLE HIGH,CHARLOTTESVILLE,VA,22901,1,28
510084002661,470503,COSBY HIGH,MIDLOTHIAN,VA,23112,1,64
510126000059,470402,CHANTILLY HIGH,CHANTILLY,VA,20151,1,60
510180000731,471020,BETHEL HIGH,HAMPTON,VA,23666,1,37
510189000809,471070,HIGHLAND SPRINGS HIGH,HIGHLAND SPRINGS,VA,23075,1,22
510267001098,471585,GRANBY HIGH,NORFOLK,VA,23505,1,19
510267001119,471619,NORFOLK TECHNICAL CTR,NORFOLK,VA,23502,1,27
530006000013,480015,ADNA MIDDLE/HIGH SCHOOL,CHEHALIS,WA,98532,1,5
530033000043,481580,BAINBRIDGE HIGH SCHOOL,BAINBRIDGE ISLAND,WA,98110,1,12
530066000139,480103,BREMERTON HIGH SCHOOL,BREMERTON,WA,98337,1,17
530111000191,481483,CENTRAL VALLEY HIGH SCHOOL,VERADALE,WA,99037,1,41
530111000204,481297,UNIVERSITY HIGH SCHOOL,SPOKANE,WA,99216,1,16
530123000223,480185,CHENEY HIGH SCHOOL,CHENEY,WA,99004,1,5
530141000250,481370,CLOVER PARK HIGH SCHOOL,LAKEWOOD,WA,98499,1,11
530141000261,480588,LAKES HIGH SCHOOL,LAKEWOOD,WA,98498,1,14
530141003000,480589,HARRISON PREP SCHOOL,LAKEWOOD,WA,98498,1,10
530156000278,480480,COLUMBIA HIGH AND ELEMENTARY,HUNTERS,WA,99137,1,5
530228000312,481238,EAST VALLEY HIGH SCHOOL,SPOKANE VALLEY,WA,99216,1,11
530237000327,480335,EATONVILLE HIGH SCHOOL,EATONVILLE,WA,98328,1,13
530267000391,480383,CASCADE HIGH SCHOOL,EVERETT,WA,98203,1,24
530267000395,480385,EVERETT HIGH SCHOOL,EVERETT,WA,98201,1,56
530267001726,480711,HENRY M. JACKSON HIGH SCHOOL,MILL CREEK,WA,98012,1,35
530270003222,480139,UNION HIGH SCHOOL,CAMAS,WA,98607,1,26
530282003154,480401,TODD BEAMER HIGH SCHOOL,FEDERAL WAY,WA,98003,1,13
530288000465,481375,FIFE HIGH SCHOOL,TACOMA,WA,98424,1,26
530354000531,481090,HIGHLINE HIGH SCHOOL,BURIEN,WA,98148,1,6
530354003069,481159,ACADEMY OF CITIZENSHIP AND EMPOWERMENT,SEATAC,WA,98188,1,10
530354003180,481141,TECHNOLOGY ENGINEERING & COMMUNICATIONS,SEATTLE,WA,98146,1,13
530354003182,481139,ARTS & ACADEMICS ACADEMY,SEATTLE,WA,98146,1,22
530399001967,480540,KETTLE FALLS HIGH SCHOOL,KETTLE FALLS,WA,99141,1,6
530486001909,480674,MARYSVILLE MOUNTAIN VIEW HIGH SCHOOL,MARYSVILLE,WA,98270,1,6
530486003323,480675,INTL SCH OF COMMUNICATIONS,MARYSVILLE,WA,98270,1,13
530645000953,480855,ORTING HIGH SCHOOL,ORTING,WA,98360,1,22
530696001038,480940,PUYALLUP HIGH SCHOOL,PUYALLUP,WA,98371,1,37
530723001077,480985,LINDBERGH SENIOR HIGH SCHOOL,RENTON,WA,98058,1,18
530780003344,480495,SELKIRK HIGH SCHOOL,IONE,WA,99139,2,6
530792001317,481166,SHOREWOOD HIGH SCHOOL,SHORELINE,WA,98133,1,29
530825001385,481258,FERRIS HIGH SCHOOL,SPOKANE,WA,99223,1,26
530825001386,481260,ROGERS HIGH SCHOOL,SPOKANE,WA,99207,1,12
530825001388,481265,LEWIS & CLARK HIGH SCHOOL,SPOKANE,WA,99204,1,21
530825001407,481282,SHADLE PARK HIGH SCHOOL,SPOKANE,WA,99205,1,11
530825003378,481283,ON TRACK ACADEMY,SPOKANE,WA,99207,1,10
530927003415,481493,VANCOUVER ITECH PREPARATORY,VANCOUVER,WA,98686,1,20
530969001648,480710,WEST VALLEY HIGH SCHOOL,SPOKANE,WA,99212,1,12